INTELSAT 23 (IS-23)     
1 38867U 12057A   26200.82892110 -.00000288  00000+0  00000+0 0  9995
2 38867   0.0179  13.7159 0000414 112.3847  56.9017  1.00276310 50285
FM-6                    
1 39360U 13058A   26200.61572735 -.00000019  00000+0  00000+0 0  9993
2 39360   0.0120  35.0933 0001130 140.3660 227.2516  1.00270259 46397
INTELSAT 30 (IS-30)     
1 40271U 14062A   26200.48141826 -.00000155  00000+0  00000+0 0  9991
2 40271   0.0157  52.0720 0001674 340.0620 343.3983  1.00272331  7119
DIRECTV 14              
1 40333U 14078B   26200.52939410 -.00000129  00000+0  00000+0 0  9997
2 40333   0.0143  54.4811 0000312 330.3522   3.8113  1.00270491 42365
DIRECTV 15              
1 40663U 15026A   26200.61016971 -.00000106  00000+0  00000+0 0  9990
2 40663   0.0211  78.9145 0000361 318.0321  17.2220  1.00270163 40780
SKY MEXICO-1            
1 40664U 15026B   26200.81845931 -.00000238  00000+0  00000+0 0  9995
2 40664   0.0195  74.6576 0002460  59.0939  19.6995  1.00272551 40780
INTELSAT 34 (IS-34)     
1 40874U 15039A   26200.82892110 -.00000289  00000+0  00000+0 0  9990
2 40874   0.0101   0.9660 0000536  24.8891 154.6795  1.00273857 39961
INTELSAT 31 (IS-31)     
1 41581U 16035A   26200.81525263 -.00000154  00000+0  00000+0 0  9995
2 41581   0.0319 258.9318 0000967  49.2100 187.8986  1.00271842 37011
INTELSAT 36 (IS-36)     
1 41747U 16053A   26200.84770853 -.00000028  00000+0  00000+0 0  9999
2 41747   0.0089  29.8951 0002333 317.9603 323.4393  1.00272884 36284
INTELSAT 32E (IS-32E)   
1 41945U 17007B   26200.81780833 -.00000272  00000+0  00000+0 0  9996
2 41945   0.0140  47.8132 0000646 341.2125 159.7980  1.00272765 34555
INTELSAT 35E (IS-35E)   
1 42818U 17041A   26200.81225024 -.00000241  00000+0  00000+0 0  9996
2 42818   0.0141  72.5407 0001999  45.9345  77.0304  1.00272497 33148
INTELSAT 37E (IS-37E)   
1 42950U 17059A   26200.80669791 -.00000144  00000+0  00000+0 0  9996
2 42950   0.0188  82.5227 0002715  37.8676  89.6059  1.00272977 32396
AZERSPACE 2 (IS-38)     
1 43632U 18074A   26200.84311519  .00000133  00000+0  00000+0 0  9995
2 43632   0.0147  52.9189 0001521  56.7318 176.6007  1.00271715 28770
HORIZONS-3E             
1 43633U 18074B   26200.79635920 -.00000034  00000+0  00000+0 0  9996
2 43633   0.0431 238.5575 0000557  57.1281  97.5668  1.00272372 28662
AT&T T-16               
1 44333U 19034A   26200.61016971 -.00000119  00000+0  00000+0 0  9995
2 44333   0.0140  68.7792 0000949 291.1236  56.2980  1.00270292 25953
INTELSAT 39 (IS-39)     
1 44476U 19049B   26200.86003543  .00000030  00000+0  00000+0 0  9998
2 44476   0.0144  50.6958 0000925 309.9873 308.5102  1.00271510 25456
GALAXY 30 (G-30)        
1 46114U 20056C   26200.62127948  .00000033  00000+0  00000+0 0  9992
2 46114   0.0202  54.5695 0002236  64.2335 277.2654  1.00272994 21619
GALAXY 33 (G-33)        
1 54026U 22128A   26200.73654443  .00000076  00000+0  00000+0 0  9999
2 54026   0.0211  67.8284 0001939  46.4235 315.3981  1.00270779 14068
GALAXY 34 (G-34)        
1 54027U 22128B   26200.73732443  .00000000  00000+0  00000+0 0  9994
2 54027   0.0154  49.4968 0001791  75.4435 309.0282  1.00274659 14234
GALAXY 31 (G-31)        
1 54243U 22153A   26200.61572735  .00000010  00000+0  00000+0 0  9996
2 54243   0.0051  14.5336 0000850  98.1288 285.3792  1.00265656  7450
GALAXY 32 (G-32)        
1 54244U 22153B   26200.61016971 -.00000178  00000+0  00000+0 0  9998
2 54244   0.0102  25.5569 0001459  22.9957  17.5036  1.00270687 13466
GALAXY 35 (G-35)        
1 54741U 22170A   26200.81577263 -.00000166  00000+0  00000+0 0  9994
2 54741   0.0187  95.1580 0001968  21.1094  21.8983  1.00272218 13220
GALAXY 36 (G-36)        
1 54742U 22170B   26200.81646595 -.00000188  00000+0  00000+0 0  9994
2 54742   0.0200 138.3993 0002691 321.7825  42.3424  1.00271738 13101
GALAXY 37 (G-37)        
1 57493U 23112A   26200.62127948  .00000000  00000+0  00000+0 0  9994
2 57493   0.0233  59.3650 0002144  57.1389 277.5679  1.00270947 10868
