OBJECT_NAME,OBJECT_ID,EPOCH,MEAN_MOTION,ECCENTRICITY,INCLINATION,RA_OF_ASC_NODE,ARG_OF_PERICENTER,MEAN_ANOMALY,EPHEMERIS_TYPE,CLASSIFICATION_TYPE,NORAD_CAT_ID,ELEMENT_SET_NO,REV_AT_EPOCH,BSTAR,MEAN_MOTION_DOT,MEAN_MOTION_DDOT
INTELSAT 23 (IS-23),2012-057A,2026-07-19T19:53:38.783040,1.00276310,.0000414,0.0179,13.7159,112.3847,56.9017,0,U,38867,999,5028,0,-.288E-5,0
FM-6,2013-058A,2026-07-19T14:46:38.843040,1.00270259,.000113,0.0120,35.0933,140.3660,227.2516,0,U,39360,999,4639,0,-.19E-6,0
INTELSAT 30 (IS-30),2014-062A,2026-07-19T11:33:14.537664,1.00272331,.00016741,0.0157,52.0720,340.0620,343.3983,0,U,40271,999,711,0,-.155E-5,0
DIRECTV 14,2014-078B,2026-07-19T12:42:19.650240,1.00270491,.0000312,0.0143,54.4811,330.3522,3.8113,0,U,40333,999,4236,0,-.129E-5,0
DIRECTV 15,2015-026A,2026-07-19T14:38:38.662944,1.00270163,.0000361,0.0211,78.9145,318.0321,17.2220,0,U,40663,999,4078,0,-.106E-5,0
SKY MEXICO-1,2015-026B,2026-07-19T19:38:34.884384,1.00272551,.000246,0.0195,74.6576,59.0939,19.6995,0,U,40664,999,4078,0,-.238E-5,0
INTELSAT 34 (IS-34),2015-039A,2026-07-19T19:53:38.783040,1.00273857,.0000536,0.0101,0.9660,24.8891,154.6795,0,U,40874,999,3996,0,-.289E-5,0
INTELSAT 31 (IS-31),2016-035A,2026-07-19T19:33:57.827232,1.00271842,.0000967,0.0319,258.9318,49.2100,187.8986,0,U,41581,999,3701,0,-.154E-5,0
INTELSAT 36 (IS-36),2016-053A,2026-07-19T20:20:42.016992,1.00272884,.0002333,0.0089,29.8951,317.9603,323.4393,0,U,41747,999,3628,0,-.28E-6,0
INTELSAT 32E (IS-32E),2017-007B,2026-07-19T19:37:38.639712,1.00272765,.0000646,0.0140,47.8132,341.2125,159.7980,0,U,41945,999,3455,0,-.272E-5,0
INTELSAT 35E (IS-35E),2017-041A,2026-07-19T19:29:38.420736,1.00272497,.0001999,0.0141,72.5407,45.9345,77.0304,0,U,42818,999,3314,0,-.241E-5,0
INTELSAT 37E (IS-37E),2017-059A,2026-07-19T19:21:38.699424,1.00272977,.0002715,0.0188,82.5227,37.8676,89.6059,0,U,42950,999,3239,0,-.144E-5,0
AZERSPACE 2 (IS-38),2018-074A,2026-07-19T20:14:05.152416,1.00271715,.0001521,0.0147,52.9189,56.7318,176.6007,0,U,43632,999,2877,0,.133E-5,0
HORIZONS-3E,2018-074B,2026-07-19T19:06:45.434880,1.00272372,.0000557,0.0431,238.5575,57.1281,97.5668,0,U,43633,999,2866,0,-.34E-6,0
AT&T T-16,2019-034A,2026-07-19T14:38:38.662944,1.00270292,.0000949,0.0140,68.7792,291.1236,56.2980,0,U,44333,999,2595,0,-.119E-5,0
INTELSAT 39 (IS-39),2019-049B,2026-07-19T20:38:27.061152,1.00271510,.0000925,0.0144,50.6958,309.9873,308.5102,0,U,44476,999,2545,0,.3E-6,0
GALAXY 30 (G-30),2020-056C,2026-07-19T14:54:38.547072,1.00272994,.0002236,0.0202,54.5695,64.2335,277.2654,0,U,46114,999,2161,0,.33E-6,0
GALAXY 33 (G-33),2022-128A,2026-07-19T17:40:37.438752,1.00270779,.0001939,0.0211,67.8284,46.4235,315.3981,0,U,54026,999,1406,0,.76E-6,0
GALAXY 34 (G-34),2022-128B,2026-07-19T17:41:44.830752,1.00274659,.0001791,0.0154,49.4968,75.4435,309.0282,0,U,54027,999,1423,0,0,0
GALAXY 31 (G-31),2022-153A,2026-07-19T14:46:38.843040,1.00265656,.000085,0.0051,14.5336,98.1288,285.3792,0,U,54243,999,745,0,.1E-6,0
GALAXY 32 (G-32),2022-153B,2026-07-19T14:38:38.662944,1.00270687,.0001459,0.0102,25.5569,22.9957,17.5036,0,U,54244,999,1346,0,-.178E-5,0
GALAXY 35 (G-35),2022-170A,2026-07-19T19:34:42.755232,1.00272218,.0001968,0.0187,95.1580,21.1094,21.8983,0,U,54741,999,1322,0,-.166E-5,0
GALAXY 36 (G-36),2022-170B,2026-07-19T19:35:42.658080,1.00271738,.0002691,0.0200,138.3993,321.7825,42.3424,0,U,54742,999,1310,0,-.188E-5,0
GALAXY 37 (G-37),2023-112A,2026-07-19T14:54:38.547072,1.00270947,.0002144,0.0233,59.3650,57.1389,277.5679,0,U,57493,999,1086,0,0,0
